SL-3 R/B                
1 13403U 82079B   26013.52880681  .00003578  00000+0  14529-3 0  9993
2 13403  81.1462 258.1800 0025465 355.6067   4.4938 15.24021772369291
SL-14 R/B               
1 13553U 82092B   26013.65901543  .00000427  00000+0  45162-4 0  9997
2 13553  82.5670 192.8581 0021647 121.6478 331.4929 14.86592731320754
SL-3 R/B                
1 13819U 83010B   26013.59361098  .00008372  00000+0  17942-3 0  9992
2 13819  81.1037  69.7080 0016297 235.7326 124.2375 15.44451737349435
SL-3 R/B                
1 14208U 83075B   26013.56825131  .00007624  00000+0  21164-3 0  9996
2 14208  97.6116  16.1395 0024380  68.8187 291.5658 15.36904425321682
COSMOS 1536             
1 14699U 84013A   26013.48010204  .00005734  00000+0  24179-3 0  9990
2 14699  82.5458 162.6765 0015612 115.1058 245.1800 15.22995529264216
SL-14 R/B               
1 14820U 84027B   26013.20596456  .00000421  00000+0  45356-4 0  9998
2 14820  82.5432 297.0508 0018597 152.6738 207.5461 14.85913944239393
SL-8 R/B                
1 15483U 85006B   26013.42076119  .00000267  00000+0  97178-4 0  9992
2 15483  74.0463   2.8423 0019753 289.7239 181.0449 14.37745253146088
SL-12 R/B(2)            
1 15772U 85042D   26013.54336520  .00000019  00000+0  29999-4 0  9992
2 15772  71.1063 204.2320 0036479 214.4184 209.7714 14.21962002106552
SL-14 R/B               
1 15945U 85069B   26013.54420302  .00000331  00000+0  34702-4 0  9990
2 15945  82.5259  76.8019 0019244  19.7593 340.4365 14.86363869164642
SL-16 R/B               
1 16182U 85097B   26013.43607007  .00000006  00000+0  27148-4 0  9997
2 16182  71.0023 256.8756 0008589 325.5646 206.8008 14.16592370 79405
SL-14 R/B               
1 16496U 86006B   26013.53541349  .00000531  00000+0  53473-4 0  9996
2 16496  82.5287 311.6367 0078293  95.3864 265.6291 14.86719825141010
COSMOS 1743             
1 16719U 86034A   26013.28785387  .00028459  00000+0  43338-3 0  9996
2 16719  82.5349 131.7737 0005265 133.5496 226.6196 15.54336521171630
