CCSDS_OMM_VERS = 2.0
CREATION_DATE  = 
ORIGINATOR     = 

OBJECT_NAME    = SL-3 R/B
OBJECT_ID      = 1982-079B
CENTER_NAME    = EARTH
REF_FRAME      = TEME
TIME_SYSTEM    = UTC
MEAN_ELEMENT_THEORY = SGP/SGP4

EPOCH          = 2026-01-13T12:41:28.908384
MEAN_MOTION    = 15.24021772
ECCENTRICITY   = .00254652
INCLINATION    = 81.1462
RA_OF_ASC_NODE = 258.1800
ARG_OF_PERICENTER = 355.6067
MEAN_ANOMALY   = 4.4938

EPHEMERIS_TYPE = 0
CLASSIFICATION_TYPE = U
NORAD_CAT_ID   = 13403
ELEMENT_SET_NO = 999
REV_AT_EPOCH   = 36929
BSTAR          = .14528662E-3
MEAN_MOTION_DOT = .3578E-4
MEAN_MOTION_DDOT = 0

CCSDS_OMM_VERS = 2.0
CREATION_DATE  = 
ORIGINATOR     = 

OBJECT_NAME    = SL-14 R/B
OBJECT_ID      = 1982-092B
CENTER_NAME    = EARTH
REF_FRAME      = TEME
TIME_SYSTEM    = UTC
MEAN_ELEMENT_THEORY = SGP/SGP4

EPOCH          = 2026-01-13T15:48:58.933152
MEAN_MOTION    = 14.86592731
ECCENTRICITY   = .00216476
INCLINATION    = 82.5670
RA_OF_ASC_NODE = 192.8581
ARG_OF_PERICENTER = 121.6478
MEAN_ANOMALY   = 331.4929

EPHEMERIS_TYPE = 0
CLASSIFICATION_TYPE = U
NORAD_CAT_ID   = 13553
ELEMENT_SET_NO = 999
REV_AT_EPOCH   = 32075
BSTAR          = .45162018E-4
MEAN_MOTION_DOT = .427E-5
MEAN_MOTION_DDOT = 0

CCSDS_OMM_VERS = 2.0
CREATION_DATE  = 
ORIGINATOR     = 

OBJECT_NAME    = SL-3 R/B
OBJECT_ID      = 1983-010B
CENTER_NAME    = EARTH
REF_FRAME      = TEME
TIME_SYSTEM    = UTC
MEAN_ELEMENT_THEORY = SGP/SGP4

EPOCH          = 2026-01-13T14:14:47.988672
MEAN_MOTION    = 15.44451737
ECCENTRICITY   = .00162977
INCLINATION    = 81.1037
RA_OF_ASC_NODE = 69.7080
ARG_OF_PERICENTER = 235.7326
MEAN_ANOMALY   = 124.2375

EPHEMERIS_TYPE = 0
CLASSIFICATION_TYPE = U
NORAD_CAT_ID   = 13819
ELEMENT_SET_NO = 999
REV_AT_EPOCH   = 34943
BSTAR          = .17941734E-3
MEAN_MOTION_DOT = .8372E-4
MEAN_MOTION_DDOT = 0

CCSDS_OMM_VERS = 2.0
CREATION_DATE  = 
ORIGINATOR     = 

OBJECT_NAME    = SL-3 R/B
OBJECT_ID      = 1983-075B
CENTER_NAME    = EARTH
REF_FRAME      = TEME
TIME_SYSTEM    = UTC
MEAN_ELEMENT_THEORY = SGP/SGP4

EPOCH          = 2026-01-13T13:38:16.913184
MEAN_MOTION    = 15.36904425
ECCENTRICITY   = .00243807
INCLINATION    = 97.6116
RA_OF_ASC_NODE = 16.1395
ARG_OF_PERICENTER = 68.8187
MEAN_ANOMALY   = 291.5658

EPHEMERIS_TYPE = 0
CLASSIFICATION_TYPE = U
NORAD_CAT_ID   = 14208
ELEMENT_SET_NO = 999
REV_AT_EPOCH   = 32168
BSTAR          = .211643E-3
MEAN_MOTION_DOT = .7624E-4
MEAN_MOTION_DDOT = 0

CCSDS_OMM_VERS = 2.0
CREATION_DATE  = 
ORIGINATOR     = 

OBJECT_NAME    = COSMOS 1536
OBJECT_ID      = 1984-013A
CENTER_NAME    = EARTH
REF_FRAME      = TEME
TIME_SYSTEM    = UTC
MEAN_ELEMENT_THEORY = SGP/SGP4

EPOCH          = 2026-01-13T11:31:20.816256
MEAN_MOTION    = 15.22995529
ECCENTRICITY   = .00156123
INCLINATION    = 82.5458
RA_OF_ASC_NODE = 162.6765
ARG_OF_PERICENTER = 115.1058
MEAN_ANOMALY   = 245.1800

EPHEMERIS_TYPE = 0
CLASSIFICATION_TYPE = U
NORAD_CAT_ID   = 14699
ELEMENT_SET_NO = 999
REV_AT_EPOCH   = 26421
BSTAR          = .24178544E-3
MEAN_MOTION_DOT = .5734E-4
MEAN_MOTION_DDOT = 0

CCSDS_OMM_VERS = 2.0
CREATION_DATE  = 
ORIGINATOR     = 

OBJECT_NAME    = SL-14 R/B
OBJECT_ID      = 1984-027B
CENTER_NAME    = EARTH
REF_FRAME      = TEME
TIME_SYSTEM    = UTC
MEAN_ELEMENT_THEORY = SGP/SGP4

EPOCH          = 2026-01-13T04:56:35.337984
MEAN_MOTION    = 14.85913944
ECCENTRICITY   = .00185978
INCLINATION    = 82.5432
RA_OF_ASC_NODE = 297.0508
ARG_OF_PERICENTER = 152.6738
MEAN_ANOMALY   = 207.5461

EPHEMERIS_TYPE = 0
CLASSIFICATION_TYPE = U
NORAD_CAT_ID   = 14820
ELEMENT_SET_NO = 999
REV_AT_EPOCH   = 23939
BSTAR          = .45356024E-4
MEAN_MOTION_DOT = .421E-5
MEAN_MOTION_DDOT = 0

CCSDS_OMM_VERS = 2.0
CREATION_DATE  = 
ORIGINATOR     = 

OBJECT_NAME    = SL-8 R/B
OBJECT_ID      = 1985-006B
CENTER_NAME    = EARTH
REF_FRAME      = TEME
TIME_SYSTEM    = UTC
MEAN_ELEMENT_THEORY = SGP/SGP4

EPOCH          = 2026-01-13T10:05:53.766816
MEAN_MOTION    = 14.37745253
ECCENTRICITY   = .00197537
INCLINATION    = 74.0463
RA_OF_ASC_NODE = 2.8423
ARG_OF_PERICENTER = 289.7239
MEAN_ANOMALY   = 181.0449

EPHEMERIS_TYPE = 0
CLASSIFICATION_TYPE = U
NORAD_CAT_ID   = 15483
ELEMENT_SET_NO = 999
REV_AT_EPOCH   = 14608
BSTAR          = .97177623E-4
MEAN_MOTION_DOT = .267E-5
MEAN_MOTION_DDOT = 0

CCSDS_OMM_VERS = 2.0
CREATION_DATE  = 
ORIGINATOR     = 

OBJECT_NAME    = SL-12 R/B(2)
OBJECT_ID      = 1985-042D
CENTER_NAME    = EARTH
REF_FRAME      = TEME
TIME_SYSTEM    = UTC
MEAN_ELEMENT_THEORY = SGP/SGP4

EPOCH          = 2026-01-13T13:02:26.753280
MEAN_MOTION    = 14.21962002
ECCENTRICITY   = .00364791
INCLINATION    = 71.1063
RA_OF_ASC_NODE = 204.2320
ARG_OF_PERICENTER = 214.4184
MEAN_ANOMALY   = 209.7714

EPHEMERIS_TYPE = 0
CLASSIFICATION_TYPE = U
NORAD_CAT_ID   = 15772
ELEMENT_SET_NO = 999
REV_AT_EPOCH   = 10655
BSTAR          = .2999895E-4
MEAN_MOTION_DOT = .19E-6
MEAN_MOTION_DDOT = 0

CCSDS_OMM_VERS = 2.0
CREATION_DATE  = 
ORIGINATOR     = 

OBJECT_NAME    = SL-14 R/B
OBJECT_ID      = 1985-069B
CENTER_NAME    = EARTH
REF_FRAME      = TEME
TIME_SYSTEM    = UTC
MEAN_ELEMENT_THEORY = SGP/SGP4

EPOCH          = 2026-01-13T13:03:39.140928
MEAN_MOTION    = 14.86363869
ECCENTRICITY   = .00192441
INCLINATION    = 82.5259
RA_OF_ASC_NODE = 76.8019
ARG_OF_PERICENTER = 19.7593
MEAN_ANOMALY   = 340.4365

EPHEMERIS_TYPE = 0
CLASSIFICATION_TYPE = U
NORAD_CAT_ID   = 15945
ELEMENT_SET_NO = 999
REV_AT_EPOCH   = 16464
BSTAR          = .34701605E-4
MEAN_MOTION_DOT = .331E-5
MEAN_MOTION_DDOT = 0

CCSDS_OMM_VERS = 2.0
CREATION_DATE  = 
ORIGINATOR     = 

OBJECT_NAME    = SL-16 R/B
OBJECT_ID      = 1985-097B
CENTER_NAME    = EARTH
REF_FRAME      = TEME
TIME_SYSTEM    = UTC
MEAN_ELEMENT_THEORY = SGP/SGP4

EPOCH          = 2026-01-13T10:27:56.454048
MEAN_MOTION    = 14.16592370
ECCENTRICITY   = .00085898
INCLINATION    = 71.0023
RA_OF_ASC_NODE = 256.8756
ARG_OF_PERICENTER = 325.5646
MEAN_ANOMALY   = 206.8008

EPHEMERIS_TYPE = 0
CLASSIFICATION_TYPE = U
NORAD_CAT_ID   = 16182
ELEMENT_SET_NO = 999
REV_AT_EPOCH   = 7940
BSTAR          = .27147568E-4
MEAN_MOTION_DOT = .6E-7
MEAN_MOTION_DDOT = 0

CCSDS_OMM_VERS = 2.0
CREATION_DATE  = 
ORIGINATOR     = 

OBJECT_NAME    = SL-14 R/B
OBJECT_ID      = 1986-006B
CENTER_NAME    = EARTH
REF_FRAME      = TEME
TIME_SYSTEM    = UTC
MEAN_ELEMENT_THEORY = SGP/SGP4

EPOCH          = 2026-01-13T12:50:59.725536
MEAN_MOTION    = 14.86719825
ECCENTRICITY   = .00782933
INCLINATION    = 82.5287
RA_OF_ASC_NODE = 311.6367
ARG_OF_PERICENTER = 95.3864
MEAN_ANOMALY   = 265.6291

EPHEMERIS_TYPE = 0
CLASSIFICATION_TYPE = U
NORAD_CAT_ID   = 16496
ELEMENT_SET_NO = 999
REV_AT_EPOCH   = 14101
BSTAR          = .53472814E-4
MEAN_MOTION_DOT = .531E-5
MEAN_MOTION_DDOT = 0

CCSDS_OMM_VERS = 2.0
CREATION_DATE  = 
ORIGINATOR     = 

OBJECT_NAME    = COSMOS 1743
OBJECT_ID      = 1986-034A
CENTER_NAME    = EARTH
REF_FRAME      = TEME
TIME_SYSTEM    = UTC
MEAN_ELEMENT_THEORY = SGP/SGP4

EPOCH          = 2026-01-13T06:54:30.574368
MEAN_MOTION    = 15.54336521
ECCENTRICITY   = .00052655
INCLINATION    = 82.5349
RA_OF_ASC_NODE = 131.7737
ARG_OF_PERICENTER = 133.5496
MEAN_ANOMALY   = 226.6196

EPHEMERIS_TYPE = 0
CLASSIFICATION_TYPE = U
NORAD_CAT_ID   = 16719
ELEMENT_SET_NO = 999
REV_AT_EPOCH   = 17163
BSTAR          = .43337786E-3
MEAN_MOTION_DOT = .28459E-3
MEAN_MOTION_DDOT = 0

